{
  "norad_id": 56070,
  "name": "ONEWEB-0609",
  "history": [
    {
      "epoch": "2026-03-28T22:38:13.537536Z",
      "apogee_km": 1203.0838860807926,
      "perigee_km": 1200.454568208721,
      "latitude_deg": -1.0039324046299929e-06,
      "longitude_deg": 109.32028521393688,
      "height_km": 1204.6698491824657,
      "semi_major_axis_km": 7579.9062271447565,
      "eccentricity": 0.00017344,
      "inclination_deg": 87.8925,
      "raan_deg": 275.2331,
      "arg_perigee_deg": 90.3579,
      "mean_anomaly_deg": 269.775,
      "mean_motion_rev_day": 13.15548951
    },
    {
      "epoch": "2026-03-29T00:27:44.861472Z",
      "apogee_km": 1203.0834034628324,
      "perigee_km": 1200.453176327238,
      "latitude_deg": -7.97250616855354e-06,
      "longitude_deg": 81.84960335633573,
      "height_km": 1204.6681445211425,
      "semi_major_axis_km": 7579.905289895035,
      "eccentricity": 0.0001735,
      "inclination_deg": 87.8926,
      "raan_deg": 275.2179,
      "arg_perigee_deg": 90.3243,
      "mean_anomaly_deg": 269.8086,
      "mean_motion_rev_day": 13.15549195
    },
    {
      "epoch": "2026-03-30T00:11:32.359488Z",
      "apogee_km": 1203.088829638983,
      "perigee_km": 1200.4464748772061,
      "latitude_deg": 4.502651480771247e-07,
      "longitude_deg": 84.7293450282443,
      "height_km": 1204.6684555562188,
      "semi_major_axis_km": 7579.904652258094,
      "eccentricity": 0.0001743,
      "inclination_deg": 87.8926,
      "raan_deg": 275.0201,
      "arg_perigee_deg": 90.3646,
      "mean_anomaly_deg": 269.7684,
      "mean_motion_rev_day": 13.15549361
    },
    {
      "epoch": "2026-03-30T12:58:11.771328Z",
      "apogee_km": 1203.09835560798,
      "perigee_km": 1200.4355353519331,
      "latitude_deg": 4.587032880105508e-05,
      "longitude_deg": -107.56622667042424,
      "height_km": 1204.665925710571,
      "semi_major_axis_km": 7579.903945479956,
      "eccentricity": 0.00017565,
      "inclination_deg": 87.8925,
      "raan_deg": 274.9135,
      "arg_perigee_deg": 90.2847,
      "mean_anomaly_deg": 269.8485,
      "mean_motion_rev_day": 13.15549545
    },
    {
      "epoch": "2026-03-30T18:26:45.832128Z",
      "apogee_km": 1203.097463046567,
      "perigee_km": 1200.4378261048778,
      "latitude_deg": -3.0383747315586963e-05,
      "longitude_deg": 170.02135421581485,
      "height_km": 1204.6678700445248,
      "semi_major_axis_km": 7579.904644575722,
      "eccentricity": 0.00017544,
      "inclination_deg": 87.8926,
      "raan_deg": 274.8679,
      "arg_perigee_deg": 90.338,
      "mean_anomaly_deg": 269.7951,
      "mean_motion_rev_day": 13.15549363
    },
    {
      "epoch": "2026-03-31T18:10:31.894176Z",
      "apogee_km": 1202.1743017135004,
      "perigee_km": 1201.2844254024185,
      "latitude_deg": -4.047390209976743e-05,
      "longitude_deg": 172.8991956114536,
      "height_km": 1204.5967326836278,
      "semi_major_axis_km": 7579.866363557959,
      "eccentricity": 5.87e-05,
      "inclination_deg": 87.8884,
      "raan_deg": 274.6622,
      "arg_perigee_deg": 86.5285,
      "mean_anomaly_deg": 273.5912,
      "mean_motion_rev_day": 13.15559329
    },
    {
      "epoch": "2026-04-01T17:53:51.116064Z",
      "apogee_km": 1202.8691844604245,
      "perigee_km": 1198.8371616883487,
      "latitude_deg": 3.0090740586593897e-05,
      "longitude_deg": 175.8962800843968,
      "height_km": 1204.2210317782092,
      "semi_major_axis_km": 7578.990173074386,
      "eccentricity": 0.000266,
      "inclination_deg": 87.8958,
      "raan_deg": 274.4636,
      "arg_perigee_deg": 103.6728,
      "mean_anomaly_deg": 256.4699,
      "mean_motion_rev_day": 13.15787469
    },
    {
      "epoch": "2026-04-02T17:37:08.392224Z",
      "apogee_km": 1201.7553278090663,
      "perigee_km": 1198.8315693420054,
      "latitude_deg": 7.666359858683437e-07,
      "longitude_deg": 178.9111898632685,
      "height_km": 1203.0863638490048,
      "semi_major_axis_km": 7578.430448575536,
      "eccentricity": 0.0001929,
      "inclination_deg": 87.893,
      "raan_deg": 274.2747,
      "arg_perigee_deg": 86.0892,
      "mean_anomaly_deg": 274.0459,
      "mean_motion_rev_day": 13.15933243
    },
    {
      "epoch": "2026-04-02T17:37:08.393088Z",
      "apogee_km": 1201.7555551619798,
      "perigee_km": 1198.831341989092,
      "latitude_deg": -2.6805332969493207e-06,
      "longitude_deg": 178.91118612723088,
      "height_km": 1203.0863483402823,
      "semi_major_axis_km": 7578.430448575536,
      "eccentricity": 0.00019293,
      "inclination_deg": 87.893,
      "raan_deg": 274.2747,
      "arg_perigee_deg": 86.0892,
      "mean_anomaly_deg": 274.0459,
      "mean_motion_rev_day": 13.15933243
    },
    {
      "epoch": "2026-04-03T20:59:20.734656Z",
      "apogee_km": 1201.065623422508,
      "perigee_km": 1198.54823044998,
      "latitude_deg": -1.7247459748060686e-05,
      "longitude_deg": 127.00701265852412,
      "height_km": 1202.8118491328073,
      "semi_major_axis_km": 7577.943926936244,
      "eccentricity": 0.0001661,
      "inclination_deg": 87.8928,
      "raan_deg": 274.046,
      "arg_perigee_deg": 95.0866,
      "mean_anomaly_deg": 265.0454,
      "mean_motion_rev_day": 13.16059974
    },
    {
      "epoch": "2026-04-04T20:00:01.999008Z",
      "apogee_km": 1200.97442765704,
      "perigee_km": 1198.370692292233,
      "latitude_deg": -40.66312584220327,
      "longitude_deg": -37.50058376600489,
      "height_km": 1216.077890724338,
      "semi_major_axis_km": 7577.809559974637,
      "eccentricity": 0.0001718,
      "inclination_deg": 87.8928,
      "raan_deg": 273.8533,
      "arg_perigee_deg": 90.7777,
      "mean_anomaly_deg": 129.6524,
      "mean_motion_rev_day": 13.16094978
    },
    {
      "epoch": "2026-04-05T11:18:19.167552Z",
      "apogee_km": 1200.8923706963205,
      "perigee_km": 1198.3044225036729,
      "latitude_deg": -1.9393295141029074e-05,
      "longitude_deg": -89.62975133055625,
      "height_km": 1202.5288787056468,
      "semi_major_axis_km": 7577.735396599996,
      "eccentricity": 0.00017076,
      "inclination_deg": 87.8924,
      "raan_deg": 273.7263,
      "arg_perigee_deg": 91.6468,
      "mean_anomaly_deg": 268.4858,
      "mean_motion_rev_day": 13.16114299
    },
    {
      "epoch": "2026-04-05T20:25:41.824128Z",
      "apogee_km": 1200.8961617522928,
      "perigee_km": 1198.3015449960967,
      "latitude_deg": 3.097352040766745e-05,
      "longitude_deg": 133.07508077216474,
      "height_km": 1202.5306684158318,
      "semi_major_axis_km": 7577.735853374194,
      "eccentricity": 0.0001712,
      "inclination_deg": 87.8925,
      "raan_deg": 273.6502,
      "arg_perigee_deg": 91.7021,
      "mean_anomaly_deg": 268.4306,
      "mean_motion_rev_day": 13.1611418
    },
    {
      "epoch": "2026-04-05T22:15:10.691712Z",
      "apogee_km": 1200.8514650535271,
      "perigee_km": 1198.370661892507,
      "latitude_deg": 8.151771837375184e-06,
      "longitude_deg": 105.61446103217072,
      "height_km": 1202.5695448888519,
      "semi_major_axis_km": 7577.748063473017,
      "eccentricity": 0.00016369,
      "inclination_deg": 87.8925,
      "raan_deg": 273.6348,
      "arg_perigee_deg": 93.0067,
      "mean_anomaly_deg": 267.1251,
      "mean_motion_rev_day": 13.16110999
    },
    {
      "epoch": "2026-04-07T12:34:53.356224Z",
      "apogee_km": 1201.9267972546077,
      "perigee_km": 1199.8854577786424,
      "latitude_deg": 6.318080524275159e-05,
      "longitude_deg": -111.20680619905652,
      "height_km": 1203.7332583420207,
      "semi_major_axis_km": 7579.043127516625,
      "eccentricity": 0.00013467,
      "inclination_deg": 87.8919,
      "raan_deg": 273.3154,
      "arg_perigee_deg": 86.2781,
      "mean_anomaly_deg": 273.8504,
      "mean_motion_rev_day": 13.15773679
    },
    {
      "epoch": "2026-04-07T18:03:24.477696Z",
      "apogee_km": 1202.2264933787583,
      "perigee_km": 1199.6905280208784,
      "latitude_deg": -7.209867420657288e-05,
      "longitude_deg": 166.39305232399397,
      "height_km": 1204.0052762003186,
      "semi_major_axis_km": 7579.095510699818,
      "eccentricity": 0.0001673,
      "inclination_deg": 87.8922,
      "raan_deg": 273.2698,
      "arg_perigee_deg": 96.9705,
      "mean_anomaly_deg": 263.1615,
      "mean_motion_rev_day": 13.15760038
    },
    {
      "epoch": "2026-04-08T14:08:03.016320Z",
      "apogee_km": 1202.7689810031316,
      "perigee_km": 1199.939556912429,
      "latitude_deg": -2.1224807985041282e-05,
      "longitude_deg": -135.76007432001524,
      "height_km": 1204.2462853915692,
      "semi_major_axis_km": 7579.4912689577795,
      "eccentricity": 0.00018665,
      "inclination_deg": 87.8926,
      "raan_deg": 273.1018,
      "arg_perigee_deg": 89.987,
      "mean_anomaly_deg": 270.1474,
      "mean_motion_rev_day": 13.15656987
    },
    {
      "epoch": "2026-04-09T12:02:17.045952Z",
      "apogee_km": 1203.2277500052742,
      "perigee_km": 1199.8731319376484,
      "latitude_deg": -2.407912076402292e-05,
      "longitude_deg": -105.39959504308472,
      "height_km": 1203.8649207137473,
      "semi_major_axis_km": 7579.687440971461,
      "eccentricity": 0.00022129,
      "inclination_deg": 87.8926,
      "raan_deg": 272.9203,
      "arg_perigee_deg": 69.8683,
      "mean_anomaly_deg": 290.2685,
      "mean_motion_rev_day": 13.15605911
    },
    {
      "epoch": "2026-04-10T04:28:00.657408Z",
      "apogee_km": 1203.0887017481064,
      "perigee_km": 1200.496668992896,
      "latitude_deg": -9.180614397356901e-06,
      "longitude_deg": 7.356783149302134,
      "height_km": 1204.728361928931,
      "semi_major_axis_km": 7579.929685370501,
      "eccentricity": 0.00017098,
      "inclination_deg": 87.8931,
      "raan_deg": 272.7831,
      "arg_perigee_deg": 91.911,
      "mean_anomaly_deg": 268.2216,
      "mean_motion_rev_day": 13.15542844
    }
  ]
}